SL-8 R/B                
1 15483U 85006B   26173.18238828  .00000137  00000+0  54055-4 0  9992
2 15483  74.0460  68.8724 0018993 315.2001 199.4359 14.37836829169042
SL-12 R/B(2)            
1 15772U 85042D   26173.59745999 -.00000041  00000+0  29651-5 0  9990
2 15772  71.1070 226.0861 0036590 319.6041 197.5450 14.22006749129303
SL-14 R/B               
1 15945U 85069B   26173.55424749  .00000318  00000+0  33052-4 0  9999
2 15945  82.5273 286.3182 0018210 200.5581 159.4905 14.86518859188416
SL-16 R/B               
1 16182U 85097B   26173.55370013  .00000211  00000+0  12949-3 0  9991
2 16182  71.0034 279.7797 0005388  99.7330 271.4034 14.16611174102082
SL-14 R/B               
1 16496U 86006B   26173.43500958  .00000417  00000+0  41688-4 0  9991
2 16496  82.5263 161.1746 0074757 285.7423  73.5557 14.86949685164778
COSMOS 1743             
1 16719U 86034A   26173.44650827  .00038877  00000+0  35928-3 0  9992
2 16719  82.5280 323.1386 0004278 249.7257 110.3544 15.67369579196613
SL-14 R/B               
1 16792U 86046B   26173.74304251  .00000317  00000+0  33674-4 0  9991
2 16792  82.4820 340.9248 0021773 238.8273 121.0809 14.85674067142000
SL-14 R/B               
1 16882U 86055B   26173.35200770  .00000268  00000+0  28026-4 0  9999
2 16882  82.5201  28.2768 0018574 350.6336 182.6876 14.85725845134903
AJISAI (EGS)            
1 16908U 86061A   26173.84185760 -.00000111  00000+0 -98146-4 0  9999
2 16908  50.0082 130.0067 0011182 194.9891 255.0790 12.44516781481091
SL-14 R/B               
1 17567U 87024B   26173.73827792  .00000282  00000+0  29335-4 0  9998
2 17567  82.5280 354.0320 0016686 273.1792  86.7515 14.86216057103734
COSMOS 1833             
1 17589U 87027A   26173.55909800  .00000323  00000+0  19831-3 0  9991
2 17589  70.9193 105.5771 0022979  46.0911 314.2102 14.13054172 25139
SL-16 R/B               
1 17590U 87027B   26173.36876763 -.00000005  00000+0  21171-4 0  9992
2 17590  71.0032  55.9101 0006654 306.6487  53.4025 14.17170974 30174
SL-14 R/B               
1 17912U 87038B   26173.45047897  .00000247  00000+0  25722-4 0  9993
2 17912  82.5003 198.1145 0019371 173.7465 186.3996 14.85447597 94787
COSMOS 1844             
1 17973U 87041A   26173.69352025  .00000001  00000+0  25768-4 0  9990
2 17973  70.8964 172.6922 0032601 227.4762 132.3606 14.14567265 18432
SL-14 R/B               
1 18153U 87055B   26173.47635245  .00000267  00000+0  27847-4 0  9994
2 18153  82.4991 250.2434 0021325  30.9725 329.2744 14.85713894 85499
COSMOS 1867             
1 18187U 87060A   26173.51251722 -.00000069  00000+0  11555-4 0  9996
2 18187  65.0114  13.1444 0016647 282.1866  77.7353 14.31516281 34942
SL-14 R/B               
1 18749U 88001B   26173.61343961  .00000287  00000+0  30287-4 0  9998
2 18749  82.5135  96.6691 0016516 249.9282 110.0157 14.85612646 57603
COSMOS 1933             
1 18958U 88020A   26173.63787898  .00002394  00000+0  11382-3 0  9999
2 18958  82.5126 147.0372 0004121 167.1524 192.9817 15.18742174 66150
SL-3 R/B                
1 19046U 88032B   26173.76985790  .00002999  00000+0  13800-3 0  9994
2 19046  97.5259 156.8048 0024173 224.2788 135.6514 15.20873246 68075
SL-16 R/B               
1 19120U 88039B   26173.47598093  .00000086  00000+0  63390-4 0  9993
2 19120  71.0130 206.9751 0021920 185.2019 174.8882 14.19630669973256
COSMOS 1953             
1 19210U 88050A   26173.38165035  .00005254  00000+0  17923-3 0  9994
2 19210  82.5075  52.7960 0012391 110.2875 249.9699 15.30037285 53786
SL-8 R/B                
1 19257U 88053B   26173.55769329  .00000118  00000+0  46758-4 0  9996
2 19257  74.0482 279.1576 0019184  72.5248 298.5145 14.38969122991681
COSMOS 1975             
1 19573U 88093A   26173.51953238  .00005532  00000+0  19264-3 0  9997
2 19573  82.5194  12.3374 0011841 153.7057 206.4786 15.29385555 35424
SL-14 R/B               
1 19574U 88093B   26173.65112992  .00000327  00000+0  34696-4 0  9991
2 19574  82.5316 303.5148 0021854  53.5182 317.2843 14.85745221 16601
SL-16 R/B               
1 19650U 88102B   26173.72664045  .00000166  00000+0  10772-3 0  9995
2 19650  71.0002 290.4830 0015475 217.4233 142.5814 14.16164756941766
INTERCOSMOS 24          
1 20261U 89080A   26173.57599920  .00000571  00000+0  15984-3 0  9993
2 20261  82.6060  36.1388 1188270  49.4146 320.4399 12.59668703680000
SL-14 R/B               
1 20262U 89080C   26173.52213279  .00000160  00000+0  47849-4 0  9999
2 20262  82.5938 105.8805 1228523 305.1913  44.0033 12.50572649673259
DELTA 1 R/B             
1 20323U 89089B   26173.46122961  .00000205  00000+0  59143-4 0  9996
2 20323  97.0636   4.1755 0069689 150.4500 210.0666 14.50733853910929
ARIANE 40 R/B           
1 20443U 90005H   26173.39528979  .00000152  00000+0  61886-4 0  9998
2 20443  98.2955 230.8495 0008935 246.4740 113.5510 14.39929573907875
DELTA 2 R/B(1)          
1 20453U 90008B   26173.47088637  .00071609  00000+0  51400-3 0  9998
2 20453  35.5993 200.2905 0064553 164.9369 195.3311 15.69561470942539
