OBJECT_NAME,OBJECT_ID,EPOCH,MEAN_MOTION,ECCENTRICITY,INCLINATION,RA_OF_ASC_NODE,ARG_OF_PERICENTER,MEAN_ANOMALY,EPHEMERIS_TYPE,CLASSIFICATION_TYPE,NORAD_CAT_ID,ELEMENT_SET_NO,REV_AT_EPOCH,BSTAR,MEAN_MOTION_DOT,MEAN_MOTION_DDOT
SL-8 R/B,1985-006B,2026-06-22T04:22:38.347392,14.37836829,.00189934,74.0460,68.8724,315.2001,199.4359,0,U,15483,999,16904,.54055058E-4,.137E-5,0
SL-12 R/B(2),1985-042D,2026-06-22T14:20:20.543136,14.22006749,.00365908,71.1070,226.0861,319.6041,197.5450,0,U,15772,999,12930,.2965062E-5,-.41E-6,0
SL-14 R/B,1985-069B,2026-06-22T13:18:06.983136,14.86518859,.00182109,82.5273,286.3182,200.5581,159.4905,0,U,15945,999,18841,.33051971E-4,.318E-5,0
SL-16 R/B,1985-097B,2026-06-22T13:17:19.691232,14.16611174,.00053889,71.0034,279.7797,99.7330,271.4034,0,U,16182,999,10208,.12948558E-3,.211E-5,0
SL-14 R/B,1986-006B,2026-06-22T10:26:24.827712,14.86949685,.00747572,82.5263,161.1746,285.7423,73.5557,0,U,16496,999,16477,.41687601E-4,.417E-5,0
COSMOS 1743,1986-034A,2026-06-22T10:42:58.314528,15.67369579,.00042783,82.5280,323.1386,249.7257,110.3544,0,U,16719,999,19661,.35928096E-3,.38877E-3,0
SL-14 R/B,1986-046B,2026-06-22T17:49:58.872864,14.85674067,.00217739,82.4820,340.9248,238.8273,121.0809,0,U,16792,999,14200,.33674497E-4,.317E-5,0
SL-14 R/B,1986-055B,2026-06-22T08:26:53.465280,14.85725845,.00185747,82.5201,28.2768,350.6336,182.6876,0,U,16882,999,13490,.28026193E-4,.268E-5,0
AJISAI (EGS),1986-061A,2026-06-22T20:12:16.496640,12.44516781,.00111827,50.0082,130.0067,194.9891,255.0790,0,U,16908,999,48109,-.98145556E-4,-.111E-5,0
SL-14 R/B,1987-024B,2026-06-22T17:43:07.212288,14.86216057,.00166861,82.5280,354.0320,273.1792,86.7515,0,U,17567,999,10373,.29335312E-4,.282E-5,0
COSMOS 1833,1987-027A,2026-06-22T13:25:06.067200,14.13054172,.00229796,70.9193,105.5771,46.0911,314.2102,0,U,17589,999,2513,.1983067E-3,.323E-5,0
SL-16 R/B,1987-027B,2026-06-22T08:51:01.523232,14.17170974,.0006654,71.0032,55.9101,306.6487,53.4025,0,U,17590,999,3017,.21170742E-4,-.5E-7,0
SL-14 R/B,1987-038B,2026-06-22T10:48:41.383008,14.85447597,.00193712,82.5003,198.1145,173.7465,186.3996,0,U,17912,999,9478,.25721771E-4,.247E-5,0
COSMOS 1844,1987-041A,2026-06-22T16:38:40.149600,14.14567265,.00326018,70.8964,172.6922,227.4762,132.3606,0,U,17973,999,1843,.25768163E-4,.1E-7,0
SL-14 R/B,1987-055B,2026-06-22T11:25:56.851680,14.85713894,.00213259,82.4991,250.2434,30.9725,329.2744,0,U,18153,999,8549,.27847076E-4,.267E-5,0
COSMOS 1867,1987-060A,2026-06-22T12:18:01.487808,14.31516281,.00166479,65.0114,13.1444,282.1866,77.7353,0,U,18187,999,3494,.11554634E-4,-.69E-6,0
SL-14 R/B,1988-001B,2026-06-22T14:43:21.182304,14.85612646,.00165163,82.5135,96.6691,249.9282,110.0157,0,U,18749,999,5760,.3028709E-4,.287E-5,0
COSMOS 1933,1988-020A,2026-06-22T15:18:32.743872,15.18742174,.00041212,82.5126,147.0372,167.1524,192.9817,0,U,18958,999,6615,.11381831E-3,.2394E-4,0
SL-3 R/B,1988-032B,2026-06-22T18:28:35.722560,15.20873246,.00241738,97.5259,156.8048,224.2788,135.6514,0,U,19046,999,6807,.13800113E-3,.2999E-4,0
SL-16 R/B,1988-039B,2026-06-22T11:25:24.752352,14.19630669,.00219201,71.0130,206.9751,185.2019,174.8882,0,U,19120,999,97325,.63389654E-4,.86E-6,0
COSMOS 1953,1988-050A,2026-06-22T09:09:34.590240,15.30037285,.00123915,82.5075,52.7960,110.2875,249.9699,0,U,19210,999,5378,.17922515E-3,.5254E-4,0
SL-8 R/B,1988-053B,2026-06-22T13:23:04.700256,14.38969122,.00191842,74.0482,279.1576,72.5248,298.5145,0,U,19257,999,99168,.46758468E-4,.118E-5,0
COSMOS 1975,1988-093A,2026-06-22T12:28:07.597632,15.29385555,.00118416,82.5194,12.3374,153.7057,206.4786,0,U,19573,999,3542,.19263562E-3,.5532E-4,0
SL-14 R/B,1988-093B,2026-06-22T15:37:37.625088,14.85745221,.00218547,82.5316,303.5148,53.5182,317.2843,0,U,19574,999,1660,.34695689E-4,.327E-5,0
SL-16 R/B,1988-102B,2026-06-22T17:26:21.734880,14.16164756,.0015475,71.0002,290.4830,217.4233,142.5814,0,U,19650,999,94176,.10771706E-3,.166E-5,0
INTERCOSMOS 24,1989-080A,2026-06-22T13:49:26.330880,12.59668703,.11882701,82.6060,36.1388,49.4146,320.4399,0,U,20261,999,68000,.1598378E-3,.571E-5,0
SL-14 R/B,1989-080C,2026-06-22T12:31:52.273056,12.50572649,.12285232,82.5938,105.8805,305.1913,44.0033,0,U,20262,999,67325,.47848501E-4,.16E-5,0
DELTA 1 R/B,1989-089B,2026-06-22T11:04:10.238304,14.50733853,.00696893,97.0636,4.1755,150.4500,210.0666,0,U,20323,999,91092,.59142762E-4,.205E-5,0
ARIANE 40 R/B,1990-005H,2026-06-22T09:29:13.037856,14.39929573,.0008935,98.2955,230.8495,246.4740,113.5510,0,U,20443,999,90787,.6188575E-4,.152E-5,0
DELTA 2 R/B(1),1990-008B,2026-06-22T11:18:04.582368,15.69561470,.00645536,35.5993,200.2905,164.9369,195.3311,0,U,20453,999,94253,.51399629E-3,.71609E-3,0
